[{"OBJECT_NAME":"JILIN-1 GAOFEN 03D50","OBJECT_ID":"2022-167J","EPOCH":"2026-03-09T22:35:59.947584","MEAN_MOTION":15.32279726,"ECCENTRICITY":0.00065764,"INCLINATION":97.6731,"RA_OF_ASC_NODE":232.9458,"ARG_OF_PERICENTER":101.1473,"MEAN_ANOMALY":259.0507,"EPHEMERIS_TYPE":0,"CLASSIFICATION_TYPE":"U","NORAD_CAT_ID":54690,"ELEMENT_SET_NO":999,"REV_AT_EPOCH":18014,"BSTAR":0.00049467973,"MEAN_MOTION_DOT":0.00015359,"MEAN_MOTION_DDOT":0},{"OBJECT_NAME":"STARLINK-35022","OBJECT_ID":"2025-192F","EPOCH":"2026-03-09T17:55:17.144544","MEAN_MOTION":15.31027796,"ECCENTRICITY":8.084e-5,"INCLINATION":53.1589,"RA_OF_ASC_NODE":232.0428,"ARG_OF_PERICENTER":37.8679,"MEAN_ANOMALY":322.2379,"EPHEMERIS_TYPE":0,"CLASSIFICATION_TYPE":"U","NORAD_CAT_ID":65409,"ELEMENT_SET_NO":999,"REV_AT_EPOCH":2939,"BSTAR":0.0011137648,"MEAN_MOTION_DOT":0.00033635,"MEAN_MOTION_DDOT":0}]
